NORAD_CAT_ID,OBJECT_NAME,OBJECT_TYPE,EPOCH,MEAN_MOTION,ECCENTRICITY,INCLINATION,RA_OF_ASC_NODE,ARG_OF_PERICENTER,MEAN_ANOMALY,BSTAR,MEAN_MOTION_DOT,MEAN_MOTION_DDOT,TLE_LINE0,TLE_LINE1,TLE_LINE2,SEMIMAJOR_AXIS,PERIOD,APOGEE,PERIGEE,DECAYED
53835.0,STARLINK-4783,PAYLOAD,2023-08-28 23:12:24,15.08851927,0.0001122,53.2172,130.6632,65.9796,294.1313,9.0626e-05,1.155e-05,0.0,0 STARLINK-4783,1 53835U 22114T   23240.96694762  .00001155  00000-0  90626-4 0  9993,2 53835  53.2172 130.6632 0001122  65.9796 294.1313 15.08851927 52843,6917.844,95.437,540.485,538.933,0.0
53835.0,STARLINK-4783,PAYLOAD,2023-08-29 02:23:09,15.08861971,0.000163,53.2171,130.0647,93.0571,267.0607,0.00018167,2.606e-05,0.0,0 STARLINK-4783,1 53835U 22114T   23241.09941734  .00002606  00000-0  18167-3 0  9993,2 53835  53.2171 130.0647 0001630  93.0571 267.0607 15.08861971 52866,6917.813,95.436,540.806,538.551,0.0
53835.0,STARLINK-4783,PAYLOAD,2023-08-29 10:20:07,15.08835004,0.0002021,53.2169,128.5789,85.755,274.3673,-2.2152e-05,-6.41e-06,0.0,0 STARLINK-4783,1 53835U 22114T   23241.43064003 -.00000641  00000-0 -22152-4 0  9995,2 53835  53.2169 128.5789 0002021  85.7550 274.3673 15.08835004 52910,6917.896,95.438,541.159,538.363,0.0
53835.0,STARLINK-4783,PAYLOAD,2023-08-29 19:52:26,15.08832914,0.0001644,53.2169,126.7944,101.0121,259.1056,-7.8464e-05,-1.536e-05,0.0,0 STARLINK-4783,1 53835U 22114T   23241.82808381 -.00001536  00000-0 -78464-4 0  9994,2 53835  53.2169 126.7944 0001644 101.0121 259.1056 15.08832914 53519,6917.902,95.438,540.904,538.63,0.0
53835.0,STARLINK-4783,PAYLOAD,2023-08-29 23:03:12,15.08830931,0.0001568,53.2176,126.2,100.7478,259.3691,-9.1761e-05,-1.748e-05,0.0,0 STARLINK-4783,1 53835U 22114T   23241.96056586 -.00001748  00000-0 -91761-4 0  9991,2 53835  53.2176 126.2000 0001568 100.7478 259.3691 15.08830931 52996,6917.908,95.438,540.858,538.688,0.0
53835.0,STARLINK-4783,PAYLOAD,2023-08-30 02:13:59,15.0883086,0.0001676,53.2188,125.6039,95.8025,264.3158,-8.249e-05,-1.6e-05,0.0,0 STARLINK-4783,1 53835U 22114T   23242.09304572 -.00001600  00000-0 -82490-4 0  9993,2 53835  53.2188 125.6039 0001676  95.8025 264.3158 15.08830860 53554,6917.908,95.438,540.933,538.614,0.0
53835.0,STARLINK-4783,PAYLOAD,2023-08-31 02:04:45,15.08847977,0.0001644,53.2176,121.1457,89.816,270.3021,-0.00012783,-2.322e-05,0.0,0 STARLINK-4783,1 53835U 22114T   23243.08663865 -.00002322  00000-0 -12783-3 0  9995,2 53835  53.2176 121.1457 0001644  89.8160 270.3021 15.08847977 53164,6917.856,95.437,540.858,538.584,0.0
53835.0,STARLINK-4783,PAYLOAD,2023-09-01 00:20:12,15.08812411,0.0002133,53.217,116.9822,74.7028,285.42,-2.4014e-05,-6.7e-06,0.0,0 STARLINK-4783,1 53835U 22114T   23244.01403349 -.00000670  00000-0 -24014-4 0  9993,2 53835  53.2170 116.9822 0002133  74.7028 285.4200 15.08812411 53303,6917.965,95.439,541.305,538.354,0.0
53835.0,STARLINK-4783,PAYLOAD,2023-09-01 08:17:07,15.08828346,0.0001424,53.2178,115.496,88.6504,271.4651,6.9703e-05,8.21e-06,0.0,0 STARLINK-4783,1 53835U 22114T   23244.34522292  .00000821  00000-0  69703-4 0  9998,2 53835  53.2178 115.4960 0001424  88.6504 271.4651 15.08828346 53357,6917.916,95.438,540.766,538.796,0.0
53835.0,STARLINK-4783,PAYLOAD,2023-09-01 16:14:02,15.08830694,0.0001865,53.2164,114.0081,86.101,274.0195,0.00024996,3.691e-05,0.0,0 STARLINK-4783,1 53835U 22114T   23244.67641543  .00003691  00000-0  24996-3 0  9997,2 53835  53.2164 114.0081 0001865  86.1010 274.0195 15.08830694 53402,6917.909,95.438,541.064,538.484,0.0
53835.0,STARLINK-4783,PAYLOAD,2023-09-02 01:46:20,15.08855485,0.000158,53.2154,112.2234,85.7997,274.3176,0.00017326,2.472e-05,0.0,0 STARLINK-4783,1 53835U 22114T   23245.07384535  .00002472  00000-0  17326-3 0  9992,2 53835  53.2154 112.2234 0001580  85.7997 274.3176 15.08855485 53467,6917.833,95.437,540.791,538.605,0.0
53835.0,STARLINK-4783,PAYLOAD,2023-09-02 08:07:52,15.08868259,0.0001394,53.2154,111.0339,86.1118,274.0033,3.4393e-05,2.6e-06,0.0,0 STARLINK-4783,1 53835U 22114T   23245.33879809  .00000260  00000-0  34393-4 0  9991,2 53835  53.2154 111.0339 0001394  86.1118 274.0033 15.08868259 53500,6917.794,95.436,540.623,538.695,0.0
53835.0,STARLINK-4783,PAYLOAD,2023-09-02 14:29:26,15.08837521,0.0001984,53.2163,109.8457,78.1747,281.9467,0.00027843,4.146e-05,0.0,0 STARLINK-4783,1 53835U 22114T   23245.60377849  .00004146  00000-0  27843-3 0  9996,2 53835  53.2163 109.8457 0001984  78.1747 281.9467 15.08837521 53540,6917.888,95.438,541.125,538.38,0.0
53835.0,STARLINK-4783,PAYLOAD,2023-09-02 19:15:35,15.08850171,0.0001326,53.2168,108.9534,82.9568,277.1575,0.00018822,2.71e-05,0.0,0 STARLINK-4783,1 53835U 22114T   23245.80249262  .00002710  00000-0  18822-3 0  9997,2 53835  53.2168 108.9534 0001326  82.9568 277.1575 15.08850171 54112,6917.849,95.437,540.632,538.797,0.0
53835.0,STARLINK-4783,PAYLOAD,2023-09-03 00:01:44,15.08854219,0.0001488,53.2181,108.0613,79.5946,280.5214,0.00021309,3.106e-05,0.0,0 STARLINK-4783,1 53835U 22114T   23246.00120870  .00003106  00000-0  21309-3 0  9997,2 53835  53.2181 108.0613 0001488  79.5946 280.5214 15.08854219 53605,6917.837,95.437,540.731,538.673,0.0
53835.0,STARLINK-4783,PAYLOAD,2023-09-03 07:58:40,15.0884835,0.0001856,53.2164,106.575,79.1002,281.0199,-4.6916e-05,-1.035e-05,0.0,0 STARLINK-4783,1 53835U 22114T   23246.33241285 -.00001035  00000-0 -46916-4 0  9990,2 53835  53.2164 106.5750 0001856  79.1002 281.0199 15.08848350 53651,6917.855,95.437,541.004,538.436,0.0
53835.0,STARLINK-4783,PAYLOAD,2023-09-03 23:52:31,15.08847849,0.0001477,53.2159,103.6002,82.1024,278.0136,-4.9322e-05,-1.073e-05,0.0,0 STARLINK-4783,1 53835U 22114T   23246.99480932 -.00001073  00000-0 -49322-4 0  9992,2 53835  53.2159 103.6002 0001477  82.1024 278.0136 15.08847849 54290,6917.856,95.437,540.743,538.7,0.0
53835.0,STARLINK-4783,PAYLOAD,2023-09-04 20:32:32,15.08844629,0.0001527,53.2157,99.7355,77.1301,282.9862,-1.2548e-05,-4.88e-06,0.0,0 STARLINK-4783,1 53835U 22114T   23247.85593075 -.00000488  00000-0 -12548-4 0  9990,2 53835  53.2157  99.7355 0001527  77.1301 282.9862 15.08844629 53889,6917.866,95.437,540.788,538.675,0.0
53835.0,STARLINK-4783,PAYLOAD,2023-09-05 23:34:05,15.08850948,0.0001371,53.2164,94.6802,79.7502,280.3645,0.00012214,1.657e-05,0.0,0 STARLINK-4783,1 53835U 22114T   23248.98200388  .00001657  00000-0  12214-3 0  9993,2 53835  53.2164  94.6802 0001371  79.7502 280.3645 15.08850948 54058,6917.847,95.437,540.66,538.763,0.0
53835.0,STARLINK-4783,PAYLOAD,2023-09-06 23:24:52,15.08842726,0.0001423,53.2172,90.2183,88.2299,271.8856,5.1993e-05,5.4e-06,0.0,0 STARLINK-4783,1 53835U 22114T   23249.97561012  .00000540  00000-0  51993-4 0  9995,2 53835  53.2172  90.2183 0001423  88.2299 271.8856 15.08842726 54208,6917.872,95.437,540.721,538.753,0.0
53835.0,STARLINK-4783,PAYLOAD,2023-09-07 13:43:21,15.08841538,0.0001186,53.2163,87.5425,93.0753,267.0375,7.732e-06,-1.65e-06,0.0,0 STARLINK-4783,1 53835U 22114T   23250.57177084 -.00000165  00000-0  77320-5 0  9992,2 53835  53.2163  87.5425 0001186  93.0753 267.0375 15.08841538 54833,6917.876,95.437,540.561,538.92,0.0
53835.0,STARLINK-4783,PAYLOAD,2023-09-08 00:51:02,15.08849612,0.0001355,53.2155,85.4621,88.5354,271.5794,5.668e-05,6.14e-06,0.0,0 STARLINK-4783,1 53835U 22114T   23251.03544387  .00000614  00000-0  56680-4 0  9991,2 53835  53.2155  85.4621 0001355  88.5354 271.5794 15.08849612 54367,6917.851,95.437,540.653,538.779,0.0
53835.0,STARLINK-4783,PAYLOAD,2023-09-08 10:23:21,15.08833506,0.0001399,53.2109,83.6764,155.5528,204.5531,4.8453e-05,4.83e-06,0.0,0 STARLINK-4783,1 53835U 22114T   23251.43289008  .00000483  00000-0  48453-4 0  9994,2 53835  53.2109  83.6764 0001399 155.5528 204.5531 15.08833506 54427,6917.9,95.438,540.733,538.797,0.0
53835.0,STARLINK-4783,PAYLOAD,2023-09-08 13:34:08,15.08828378,0.0001037,53.217,83.0817,96.0582,264.0528,4.132e-05,3.7e-06,0.0,0 STARLINK-4783,1 53835U 22114T   23251.56537752  .00000370  00000-0  41320-4 0  9991,2 53835  53.2170  83.0817 0001037  96.0582 264.0528 15.08828378 54985,6917.916,95.438,540.498,539.064,0.0
53835.0,STARLINK-4783,PAYLOAD,2023-09-08 19:55:40,15.08851635,0.0001567,53.2173,81.8934,71.8646,288.2517,-0.00019328,-3.364e-05,0.0,0 STARLINK-4783,1 53835U 22114T   23251.83033464 -.00003364  00000-0 -19328-3 0  9992,2 53835  53.2173  81.8934 0001567  71.8646 288.2517 15.08851635 55028,6917.845,95.437,540.794,538.626,0.0
53835.0,STARLINK-4783,PAYLOAD,2023-09-09 13:24:55,15.0886563,0.0001041,53.2169,78.6207,104.1218,255.989,-0.00037378,-6.236e-05,0.0,0 STARLINK-4783,1 53835U 22114T   23252.55897068 -.00006236  00000-0 -37378-3 0  9996,2 53835  53.2169  78.6207 0001041 104.1218 255.9890 15.08865630 55139,6917.802,95.436,540.387,538.947,0.0
53835.0,STARLINK-4783,PAYLOAD,2023-09-09 19:46:26,15.08868266,0.0001032,53.2172,77.4326,100.4995,259.6114,-0.00029902,-5.047e-05,0.0,0 STARLINK-4783,1 53835U 22114T   23252.82392237 -.00005047  00000-0 -29902-3 0  9997,2 53835  53.2172  77.4326 0001032 100.4995 259.6114 15.08868266 54635,6917.794,95.436,540.373,538.945,0.0
53835.0,STARLINK-4783,PAYLOAD,2023-09-09 22:57:13,15.08855215,0.0001186,53.2165,76.8375,98.6036,261.509,-0.00012276,-2.242e-05,0.0,0 STARLINK-4783,1 53835U 22114T   23252.95640462 -.00002242  00000-0 -12276-3 0  9997,2 53835  53.2165  76.8375 0001186  98.6036 261.5090 15.08855215 54655,6917.834,95.437,540.519,538.878,0.0
53835.0,STARLINK-4783,PAYLOAD,2023-09-10 05:18:46,15.0883805,0.0001046,53.2158,75.6474,92.8198,267.2914,0.00020178,2.925e-05,0.0,0 STARLINK-4783,1 53835U 22114T   23253.22137503  .00002925  00000-0  20178-3 0  9991,2 53835  53.2158  75.6474 0001046  92.8198 267.2914 15.08838050 54694,6917.886,95.438,540.475,539.028,0.0
53835.0,STARLINK-4783,PAYLOAD,2023-09-10 13:15:42,15.08838679,0.0001043,53.2161,74.1606,91.1354,268.9758,0.00017982,2.575e-05,0.0,0 STARLINK-4783,1 53835U 22114T   23253.55257584  .00002575  00000-0  17982-3 0  9999,2 53835  53.2161  74.1606 0001043  91.1354 268.9758 15.08838679 55289,6917.884,95.438,540.471,539.028,0.0
